[{"OBJECT_NAME":"SXM-8","OBJECT_ID":"2021-049A","EPOCH":"2026-04-26T05:39:57.418272","MEAN_MOTION":1.0027427,"ECCENTRICITY":0.0004565,"INCLINATION":0.0366,"RA_OF_ASC_NODE":47.2748,"ARG_OF_PERICENTER":349.1239,"MEAN_ANOMALY":177.6778,"EPHEMERIS_TYPE":0,"CLASSIFICATION_TYPE":"U","NORAD_CAT_ID":48838,"ELEMENT_SET_NO":999,"REV_AT_EPOCH":1806,"BSTAR":0,"MEAN_MOTION_DOT":-2.18e-6,"MEAN_MOTION_DDOT":0},{"OBJECT_NAME":"TIANLIAN 1-05","OBJECT_ID":"2021-063A","EPOCH":"2026-04-26T06:48:08.142912","MEAN_MOTION":1.0027159,"ECCENTRICITY":0.0002672,"INCLINATION":1.4617,"RA_OF_ASC_NODE":81.0728,"ARG_OF_PERICENTER":261.5372,"MEAN_ANOMALY":350.5176,"EPHEMERIS_TYPE":0,"CLASSIFICATION_TYPE":"U","NORAD_CAT_ID":49011,"ELEMENT_SET_NO":999,"REV_AT_EPOCH":1755,"BSTAR":0,"MEAN_MOTION_DOT":9.7e-7,"MEAN_MOTION_DDOT":0},{"OBJECT_NAME":"STAR ONE D2","OBJECT_ID":"2021-069A","EPOCH":"2026-04-26T08:06:00.500256","MEAN_MOTION":1.00268999,"ECCENTRICITY":0.0001079,"INCLINATION":0.0219,"RA_OF_ASC_NODE":137.1018,"ARG_OF_PERICENTER":289.2891,"MEAN_ANOMALY":199.4706,"EPHEMERIS_TYPE":0,"CLASSIFICATION_TYPE":"U","NORAD_CAT_ID":49055,"ELEMENT_SET_NO":999,"REV_AT_EPOCH":1742,"BSTAR":0,"MEAN_MOTION_DOT":-2.77e-6,"MEAN_MOTION_DDOT":0},{"OBJECT_NAME":"EUTELSAT QUANTUM","OBJECT_ID":"2021-069B","EPOCH":"2026-04-26T12:04:56.053056","MEAN_MOTION":1.0027351,"ECCENTRICITY":0.0002411,"INCLINATION":0.0281,"RA_OF_ASC_NODE":32.1106,"ARG_OF_PERICENTER":1.7424,"MEAN_ANOMALY":49.5738,"EPHEMERIS_TYPE":0,"CLASSIFICATION_TYPE":"U","NORAD_CAT_ID":49056,"ELEMENT_SET_NO":999,"REV_AT_EPOCH":1740,"BSTAR":0,"MEAN_MOTION_DOT":1.14e-6,"MEAN_MOTION_DDOT":0},{"OBJECT_NAME":"ZHONGXING-2E","OBJECT_ID":"2021-071A","EPOCH":"2026-04-26T13:07:16.080960","MEAN_MOTION":1.00269746,"ECCENTRICITY":0.0001801,"INCLINATION":0.0318,"RA_OF_ASC_NODE":343.7083,"ARG_OF_PERICENTER":141.8851,"MEAN_ANOMALY":23.8148,"EPHEMERIS_TYPE":0,"CLASSIFICATION_TYPE":"U","NORAD_CAT_ID":49062,"ELEMENT_SET_NO":999,"REV_AT_EPOCH":1752,"BSTAR":0,"MEAN_MOTION_DOT":-3.03e-6,"MEAN_MOTION_DDOT":0},{"OBJECT_NAME":"TJS-7","OBJECT_ID":"2021-077A","EPOCH":"2026-04-26T11:23:00.074688","MEAN_MOTION":1.00269696,"ECCENTRICITY":0.0002038,"INCLINATION":0.3763,"RA_OF_ASC_NODE":86.5159,"ARG_OF_PERICENTER":300.5854,"MEAN_ANOMALY":258.5975,"EPHEMERIS_TYPE":0,"CLASSIFICATION_TYPE":"U","NORAD_CAT_ID":49115,"ELEMENT_SET_NO":999,"REV_AT_EPOCH":903,"BSTAR":0,"MEAN_MOTION_DOT":-1.35e-6,"MEAN_MOTION_DDOT":0},{"OBJECT_NAME":"CHINASAT 9B","OBJECT_ID":"2021-080A","EPOCH":"2026-04-26T10:37:41.242944","MEAN_MOTION":1.002734,"ECCENTRICITY":0.0001492,"INCLINATION":0.0151,"RA_OF_ASC_NODE":256.4811,"ARG_OF_PERICENTER":133.1022,"MEAN_ANOMALY":85.6874,"EPHEMERIS_TYPE":0,"CLASSIFICATION_TYPE":"U","NORAD_CAT_ID":49125,"ELEMENT_SET_NO":999,"REV_AT_EPOCH":1713,"BSTAR":0,"MEAN_MOTION_DOT":-3.25e-6,"MEAN_MOTION_DDOT":0},{"OBJECT_NAME":"SES-17","OBJECT_ID":"2021-095A","EPOCH":"2026-04-26T11:32:14.188992","MEAN_MOTION":1.00273036,"ECCENTRICITY":6.32e-5,"INCLINATION":0.0424,"RA_OF_ASC_NODE":55.8137,"ARG_OF_PERICENTER":351.5384,"MEAN_ANOMALY":273.0912,"EPHEMERIS_TYPE":0,"CLASSIFICATION_TYPE":"U","NORAD_CAT_ID":49332,"ELEMENT_SET_NO":999,"REV_AT_EPOCH":1733,"BSTAR":0,"MEAN_MOTION_DOT":-2.85e-6,"MEAN_MOTION_DDOT":0},{"OBJECT_NAME":"SYRACUSE 4A","OBJECT_ID":"2021-095B","EPOCH":"2026-04-26T12:04:18.614208","MEAN_MOTION":1.0026963,"ECCENTRICITY":0.0001683,"INCLINATION":0.0148,"RA_OF_ASC_NODE":259.3593,"ARG_OF_PERICENTER":136.5263,"MEAN_ANOMALY":45.1954,"EPHEMERIS_TYPE":0,"CLASSIFICATION_TYPE":"U","NORAD_CAT_ID":49333,"ELEMENT_SET_NO":999,"REV_AT_EPOCH":1742,"BSTAR":0,"MEAN_MOTION_DOT":0,"MEAN_MOTION_DDOT":0},{"OBJECT_NAME":"ZHONGXING-1D","OBJECT_ID":"2021-114A","EPOCH":"2026-04-26T12:51:00.536832","MEAN_MOTION":1.00273415,"ECCENTRICITY":0.0002027,"INCLINATION":0.0481,"RA_OF_ASC_NODE":56.2172,"ARG_OF_PERICENTER":171.6773,"MEAN_ANOMALY":309.5655,"EPHEMERIS_TYPE":0,"CLASSIFICATION_TYPE":"U","NORAD_CAT_ID":49505,"ELEMENT_SET_NO":999,"REV_AT_EPOCH":1630,"BSTAR":0,"MEAN_MOTION_DOT":-3.48e-6,"MEAN_MOTION_DDOT":0},{"OBJECT_NAME":"STPSAT-6","OBJECT_ID":"2021-118A","EPOCH":"2026-04-26T12:11:38.808384","MEAN_MOTION":1.00272252,"ECCENTRICITY":0.0002089,"INCLINATION":0.1885,"RA_OF_ASC_NODE":84.8657,"ARG_OF_PERICENTER":250.3035,"MEAN_ANOMALY":310.3953,"EPHEMERIS_TYPE":0,"CLASSIFICATION_TYPE":"U","NORAD_CAT_ID":49817,"ELEMENT_SET_NO":999,"REV_AT_EPOCH":1605,"BSTAR":0,"MEAN_MOTION_DOT":-5.7e-7,"MEAN_MOTION_DDOT":0},{"OBJECT_NAME":"EXPRESS AMU-7","OBJECT_ID":"2021-123A","EPOCH":"2026-04-26T12:32:45.884256","MEAN_MOTION":1.00272046,"ECCENTRICITY":5.9e-5,"INCLINATION":0.0172,"RA_OF_ASC_NODE":256.2987,"ARG_OF_PERICENTER":41.5388,"MEAN_ANOMALY":249.8823,"EPHEMERIS_TYPE":0,"CLASSIFICATION_TYPE":"U","NORAD_CAT_ID":50001,"ELEMENT_SET_NO":999,"REV_AT_EPOCH":1602,"BSTAR":0,"MEAN_MOTION_DOT":-2.55e-6,"MEAN_MOTION_DDOT":0},{"OBJECT_NAME":"EXPRESS AMU-3","OBJECT_ID":"2021-123B","EPOCH":"2026-04-25T02:55:17.984352","MEAN_MOTION":1.00272881,"ECCENTRICITY":3.616e-5,"INCLINATION":0.021,"RA_OF_ASC_NODE":264.3165,"ARG_OF_PERICENTER":8.6245,"MEAN_ANOMALY":87.0456,"EPHEMERIS_TYPE":0,"CLASSIFICATION_TYPE":"U","NORAD_CAT_ID":50002,"ELEMENT_SET_NO":999,"REV_AT_EPOCH":650,"BSTAR":0,"MEAN_MOTION_DOT":-3.36e-6,"MEAN_MOTION_DDOT":0},{"OBJECT_NAME":"TIANLIAN 2-02","OBJECT_ID":"2021-124A","EPOCH":"2026-04-26T07:32:03.928704","MEAN_MOTION":1.00271985,"ECCENTRICITY":0.000305,"INCLINATION":0.6686,"RA_OF_ASC_NODE":86.8391,"ARG_OF_PERICENTER":220.8555,"MEAN_ANOMALY":190.589,"EPHEMERIS_TYPE":0,"CLASSIFICATION_TYPE":"U","NORAD_CAT_ID":50005,"ELEMENT_SET_NO":999,"REV_AT_EPOCH":1610,"BSTAR":0,"MEAN_MOTION_DOT":-2.6e-7,"MEAN_MOTION_DDOT":0},{"OBJECT_NAME":"TURKSAT 5B","OBJECT_ID":"2021-126A","EPOCH":"2026-04-26T12:03:26.197056","MEAN_MOTION":1.0027237,"ECCENTRICITY":0.0004621,"INCLINATION":0.0718,"RA_OF_ASC_NODE":345.323,"ARG_OF_PERICENTER":1.7781,"MEAN_ANOMALY":90.2556,"EPHEMERIS_TYPE":0,"CLASSIFICATION_TYPE":"U","NORAD_CAT_ID":50212,"ELEMENT_SET_NO":999,"REV_AT_EPOCH":1578,"BSTAR":0,"MEAN_MOTION_DOT":1.34e-6,"MEAN_MOTION_DDOT":0},{"OBJECT_NAME":"INMARSAT 6-F1","OBJECT_ID":"2021-128A","EPOCH":"2026-04-25T00:19:07.969152","MEAN_MOTION":1.00270545,"ECCENTRICITY":2.61e-5,"INCLINATION":0.0184,"RA_OF_ASC_NODE":246.893,"ARG_OF_PERICENTER":316.143,"MEAN_ANOMALY":98.5326,"EPHEMERIS_TYPE":0,"CLASSIFICATION_TYPE":"U","NORAD_CAT_ID":50319,"ELEMENT_SET_NO":999,"REV_AT_EPOCH":1572,"BSTAR":0,"MEAN_MOTION_DOT":-1.86e-6,"MEAN_MOTION_DDOT":0},{"OBJECT_NAME":"SHIYAN-12 01 (SY-12 01)","OBJECT_ID":"2021-129A","EPOCH":"2026-04-25T17:31:16.607712","MEAN_MOTION":1.00063631,"ECCENTRICITY":0.0003211,"INCLINATION":3.5412,"RA_OF_ASC_NODE":80.5936,"ARG_OF_PERICENTER":272.7108,"MEAN_ANOMALY":226.059,"EPHEMERIS_TYPE":0,"CLASSIFICATION_TYPE":"U","NORAD_CAT_ID":50321,"ELEMENT_SET_NO":999,"REV_AT_EPOCH":1597,"BSTAR":0,"MEAN_MOTION_DOT":-2.98e-6,"MEAN_MOTION_DDOT":0},{"OBJECT_NAME":"SHIYAN-12 02 (SY-12 02)","OBJECT_ID":"2021-129B","EPOCH":"2026-04-25T15:33:02.879136","MEAN_MOTION":1.00472127,"ECCENTRICITY":7.75e-5,"INCLINATION":3.541,"RA_OF_ASC_NODE":80.6085,"ARG_OF_PERICENTER":31.8667,"MEAN_ANOMALY":22.8478,"EPHEMERIS_TYPE":0,"CLASSIFICATION_TYPE":"U","NORAD_CAT_ID":50322,"ELEMENT_SET_NO":999,"REV_AT_EPOCH":1597,"BSTAR":0,"MEAN_MOTION_DOT":8.6e-7,"MEAN_MOTION_DDOT":0},{"OBJECT_NAME":"TJS-9","OBJECT_ID":"2021-135A","EPOCH":"2026-04-26T13:15:32.518944","MEAN_MOTION":1.00271143,"ECCENTRICITY":0.0003911,"INCLINATION":0.0195,"RA_OF_ASC_NODE":313.763,"ARG_OF_PERICENTER":120.1374,"MEAN_ANOMALY":116.7707,"EPHEMERIS_TYPE":0,"CLASSIFICATION_TYPE":"U","NORAD_CAT_ID":50574,"ELEMENT_SET_NO":999,"REV_AT_EPOCH":1591,"BSTAR":0,"MEAN_MOTION_DOT":-3.11e-6,"MEAN_MOTION_DDOT":0},{"OBJECT_NAME":"GOES 18","OBJECT_ID":"2022-021A","EPOCH":"2026-04-26T08:58:14.704320","MEAN_MOTION":1.00272543,"ECCENTRICITY":4.57e-5,"INCLINATION":0.0261,"RA_OF_ASC_NODE":86.4448,"ARG_OF_PERICENTER":2.5991,"MEAN_ANOMALY":122.8889,"EPHEMERIS_TYPE":0,"CLASSIFICATION_TYPE":"U","NORAD_CAT_ID":51850,"ELEMENT_SET_NO":999,"REV_AT_EPOCH":607,"BSTAR":0,"MEAN_MOTION_DOT":8.4e-7,"MEAN_MOTION_DDOT":0},{"OBJECT_NAME":"ZHONGXING-6D","OBJECT_ID":"2022-038A","EPOCH":"2026-04-26T01:23:23.842176","MEAN_MOTION":1.00270651,"ECCENTRICITY":0.0001563,"INCLINATION":0.0189,"RA_OF_ASC_NODE":243.4684,"ARG_OF_PERICENTER":99.357,"MEAN_ANOMALY":17.1607,"EPHEMERIS_TYPE":0,"CLASSIFICATION_TYPE":"U","NORAD_CAT_ID":52255,"ELEMENT_SET_NO":999,"REV_AT_EPOCH":1490,"BSTAR":0,"MEAN_MOTION_DOT":-3.67e-6,"MEAN_MOTION_DDOT":0},{"OBJECT_NAME":"NILESAT 301","OBJECT_ID":"2022-061A","EPOCH":"2026-04-26T08:23:58.775712","MEAN_MOTION":1.00272773,"ECCENTRICITY":0.0005897,"INCLINATION":0.0601,"RA_OF_ASC_NODE":39.0314,"ARG_OF_PERICENTER":341.2084,"MEAN_ANOMALY":313.1254,"EPHEMERIS_TYPE":0,"CLASSIFICATION_TYPE":"U","NORAD_CAT_ID":52817,"ELEMENT_SET_NO":999,"REV_AT_EPOCH":1421,"BSTAR":0,"MEAN_MOTION_DOT":-7.0e-7,"MEAN_MOTION_DDOT":0},{"OBJECT_NAME":"CMS-02 (GSAT-24)","OBJECT_ID":"2022-067A","EPOCH":"2026-04-26T12:15:02.582784","MEAN_MOTION":1.00270819,"ECCENTRICITY":0.0002237,"INCLINATION":0.0121,"RA_OF_ASC_NODE":213.327,"ARG_OF_PERICENTER":134.642,"MEAN_ANOMALY":133.3373,"EPHEMERIS_TYPE":0,"CLASSIFICATION_TYPE":"U","NORAD_CAT_ID":52903,"ELEMENT_SET_NO":999,"REV_AT_EPOCH":1409,"BSTAR":0,"MEAN_MOTION_DOT":-1.77e-6,"MEAN_MOTION_DDOT":0},{"OBJECT_NAME":"MEASAT 3D","OBJECT_ID":"2022-067B","EPOCH":"2026-04-26T12:17:32.345088","MEAN_MOTION":1.00270868,"ECCENTRICITY":0.0002306,"INCLINATION":0.0424,"RA_OF_ASC_NODE":34.0838,"ARG_OF_PERICENTER":330.9232,"MEAN_ANOMALY":125.4007,"EPHEMERIS_TYPE":0,"CLASSIFICATION_TYPE":"U","NORAD_CAT_ID":52904,"ELEMENT_SET_NO":999,"REV_AT_EPOCH":1413,"BSTAR":0,"MEAN_MOTION_DOT":-2.54e-6,"MEAN_MOTION_DDOT":0}]
